#dP2021  1  3  0  0  0.00000000      96 __u+U ITR00 EXT  IAC
## 2139      0.00000000   900.00000000 59217 0.0000000000000
+  115   C06C07C08C09C10C11C12C13C14C16C19C20C21C22C23C24C25
+        C26C27C28C29C30C32C33C34C35C36C37C38C39C40C43C44C45
+        C46E01E02E03E04E05E07E08E09E11E12E13E14E15E18E19E21
+        E24E25E26E27E30E31E33E36G01G02G03G04G05G06G07G08G09
+        G10G11G12G13G14G15G16G17G18G19G20G21G22G23G24G25G26
+        G27G28G29G30G31G32J01J02J03R01R02R03R04R05R07R08R09
+        R11R12R13R14R15R16R17R18R19R20R21R22R24  0  0  0  0
++         8 10  9 11  9  7  8 10  9  9  9  9  9  9  8  9  9
++         9  9  9  8 11 10  9  8  8 10  9 14 14 13 11 12  9
++        10  9  9  8  8 10  8  8  9  9  8  9  8  8  8  9  8
++         8  9  8  7  8  9  8  8  8  9  9  8  8  8  7  7  8
++         8  7  8  8  8  8  7  9  8  8  8  8  8  9  7  8  8
++         8  8  7  8  8  8 12  8  9  9  9  8  9  7  9  8  9
++         8  8  8  8  9  8  9  9  9  9  8  9  9  0  0  0  0
%c M  cc GPS ccc cccc cccc cccc cccc ccccc ccccc ccccc ccccc
%c cc cc ccc ccc cccc cccc cccc cccc ccccc ccccc ccccc ccccc
%f  0.0000000  0.000000000  0.00000000000  0.000000000000000
%f  0.0000000  0.000000000  0.00000000000  0.000000000000000
%i    0    0    0    0      0      0      0      0         0
%i    0    0    0    0      0      0      0      0         0
/* IAC                                ULTRA-RAPID PREDICTION
/* S/V CLOCKS ARE ALIGNED TO GNSS TIME                      
/* G:C1WC2W R:C1PC2P E:C1XC5X C:C2IC6I J:C1CC2S             
/* PCV:IGS14_2134 OL/AL:FES2004  NONE     YN ORB:CoN CLK:CoN
*  2021 01 03 14 45  0.00000000
PC06  -9494.020809  23121.445531 -33506.034925    104.822925
PC07 -21952.549273  30020.663124  19650.947136   -191.960411
PC08 -11137.381419  38726.494149  13153.289155   -857.762204
PC09   7041.827307  30880.160077 -27389.181280    828.503072
PC10  -8985.075759  30449.659839  27754.885963   -110.720883
PC11  18566.263552   -254.910941 -20777.006238   -861.246314
PC12  21953.610059  15527.696375  -7463.620599    706.373821
PC13  -2680.909755  42238.195991   -196.883848     81.821206
PC14  26854.597937  -7669.346091    600.993986   -177.569466
PC16  -7434.840779  23865.511590 -33857.987172   -648.701955
PC19 -22667.032727  13070.946085  -9666.723918    677.568713
PC20 -26835.749146   1969.381736   7361.392612   -909.447626
PC21  15164.862636  10837.340949 -20761.873821   -778.245257
PC22  -5200.506196  16894.866192 -21590.498841   -833.420050
PC23   4793.393384 -27218.605333  -3821.160303   -885.317164
PC24  16544.198035    385.247181  22456.857566   -736.641640
PC25  14521.276901 -20032.552525  12877.146127   -884.462776
PC26   9155.290474  18461.468046  18827.233919    965.596689
PC27 -18379.797043 -20933.414176  -1817.952488    460.283007
PC28  -3797.258092 -21393.187744 -17500.220817   -126.155392
PC29 -12603.643249   9841.195398  22868.900453    333.579659
PC30 -22536.300729  -7751.813955  14536.986770    426.265874
PC32 -15202.706056 -10770.243892  20783.527124   -881.718449
PC33  22655.944283 -13177.974432   9600.165899   -897.967255
PC34  22388.858145   7187.076725 -15011.913186   -771.532721
PC35   4212.931619  21184.418393  17653.407991   -482.938838
PC36 -15081.027233  19474.277000 -13102.746243   -786.350670
PC37  -8242.359801 -19277.507011 -18389.372265   -861.063571
PC38 -10657.532683  39222.155930  11474.876956    121.727744
PC39  -3554.411072  25353.627625 -33480.725956     27.042267
PC40 -18791.682851  26182.492138  27124.906547    117.536400
PC43  13061.063623  -9503.397793 -22754.190629   -535.493926
PC44  18936.721178  20375.870494   1995.840851    -32.241230
PC45  -4712.737306  27245.354327   3885.546207    325.549998
PC46 -16613.525322    680.954102 -22412.226798    469.213885
PE01 -20387.619916   1231.743653 -21426.317062  -1017.055631
PE02  20418.298698  -1311.135183  21382.372068    188.361578
PE03  28990.733985   6007.822373    -39.652661   -383.242758
PE04 -23135.388104   7452.731428 -16897.151124   -681.295158
PE05  17908.088619  16130.971314 -17188.994095   -315.933929
PE07   3518.797828 -16747.765150  24149.945681   -482.938321
PE08  22871.944017  -7658.769194  17159.243666   6067.485606
PE09  -3211.056328  16665.445885 -24255.191440   5811.257165
PE11    328.360995  26742.666289  12674.204091   6529.631327
PE12 -12827.720842  11409.804412  24119.964543   5425.021949
PE13   -205.791450 -26583.687174 -13005.781009    409.579986
PE14  27400.785436  10033.600657  -4747.896062  -1282.021734
PE15  12663.164922 -11512.888808 -24136.033871    836.036216
PE18 -19710.264553 -17785.865891  -7416.551936  -1401.065304
PE19 -28556.947015  -7474.701498   2225.047427    169.225151
PE21  -7057.106560 -16102.875878 -23811.140593   -640.839099
PE24 -11383.786023  24622.049903  11872.514765   -670.041981
PE25   6892.483126  16247.625132  23771.617134   -523.572581
PE26 -13166.224547 -25731.215477   6377.873955   2307.691835
PE27  10772.370469 -24612.431232 -12402.469901     58.790028
PE30  22439.862891 -18015.698534   6878.927182   3292.491621
PE31 -22160.005623  18622.124427  -6207.152785   -477.041019
PE33 -18073.798526 -10307.369109  21067.915370   -464.577820
PE36  12913.912089  26009.663040  -5722.506811    459.166214
PG01 -13634.762039   7184.226541  21341.104089    786.177366
PG02  13603.962741  16397.092723 -15196.925320   -561.875560
PG03 -22877.707631  12547.687587   4584.376138    -46.763097
PG04 -21218.877747   1960.477055 -15881.932722   -169.786322
PG05  18115.570474   3309.042755 -19358.030683    -30.029731
PG06   5740.371434  25449.219948  -4791.916367     -4.628048
PG07  -7208.271338  21663.113095 -12818.857043      7.533819
PG08 -24823.214592  -3927.178468   9045.381232     -5.284365
PG09 -11121.010266  11619.168533 -21203.477726   -308.762705
PG10   4223.392525 -18670.608689  18397.556284    -30.897143
PG11 -18167.875088  -1325.415494  18764.148070    -63.262902
PG12  23782.801909  -8663.643741   7537.927699     18.005658
PG13  23017.230970  13326.549444   1110.377514     81.912296
PG14  -7216.449485  18998.639261  17092.241339     78.874553
PG15  24991.144265    896.311767   9109.778785   -178.845226
PG16 -17323.599033  -5328.660472 -19801.645342   -259.740273
PG17   6671.549953  17792.719802  18996.202571    375.522502
PG18   5946.979255 -23321.227954 -11175.900107    338.378959
PG19  13842.929402  18287.185865  13183.835024    -56.754754
PG20  13466.881928 -21198.970116   8153.360812    525.329445
PG21 -16017.534961  -1839.506459  21895.102344     83.535758
PG22 -22269.706900   6855.061097  12792.859786   -704.580596
PG23  14126.492658 -19859.883600  10490.048331    114.302344
PG24  15451.750797  -2510.824240  21220.723188      4.180482
PG25  19043.753504 -17747.310304  -4712.808900     52.405475
PG26  -7911.682132 -13541.781074 -21464.210277     24.384549
PG27 -23338.683568 -12760.405821  -3040.479831    -48.460593
PG28  -4183.356733  17966.171856  19746.956734    634.649597
PG29  12666.666354  -9337.793650 -21440.688705   -268.697518
PG30   -341.955760  26264.617602  -2994.252130   -363.008261
PG31  -7076.089347 -24245.785827  -7470.372287    -91.629881
PG32  -8322.092226 -17675.994469  18155.541840     12.206219
PJ01 -34660.130518  16575.643172 -12697.334354   -335.679131
PJ02 -27098.349668  31504.853933  -2451.449565      0.451737
PJ03 -24703.296001  23833.520658  29632.641789     -5.262789
PR01  -6115.251997  11259.629732 -22059.206302     72.968539
PR02  16305.181813   7442.516771 -18086.334243    461.330123
PR03  25311.850323   -523.585665  -2833.617042     28.488291
PR04  19893.221118  -7965.414691  13851.410131     68.431745
PR05   3349.733880 -10948.300876  22796.242048     64.084384
PR07 -25420.673451    759.103963   2303.063048    -42.034414
PR08 -19931.200217   8001.616917 -13731.711281    -56.657527
PR09  -5249.387756 -13268.356050 -21144.299696     16.573683
PR11 -13756.600808  19365.293029  -9277.164060      4.938238
PR12  -6421.897779  23106.736822   8753.963282    193.638536
PR13   4834.641223  13459.575753  21105.486298    -48.808794
PR14  13463.810983  -4504.177225  21203.591596     59.443099
PR15  14038.873297 -19324.190555   8961.517738    106.061907
PR16   5292.730141 -22993.913452  -9543.219430     -9.810528
PR17  15842.300045   8916.887475 -17896.538311    388.038803
PR18   7808.667846  -7097.389007 -23202.868109     61.912935
PR19  -3310.912318 -19049.788444 -16626.920420   -126.367983
PR20 -14320.212520 -21045.187522   1967.985994   -430.316884
PR21 -15454.015461  -7930.301360  18675.685863   -177.770664
PR22  -7140.489813   7966.118116  23143.823697    -90.494457
PR24  14821.200214  20602.750342  -2612.161172     26.432262
EOF
